H1 CPF  1  HTS 2022 10 30 12  8031 larets           NONE
H2  0304206 5557    27944 2022 10 30  0  0  0 2022 11 04  0  0  0   180 1 1  0 0 0
H5  0.0560 
H9 
10 0 59883  34920.00000  0     268332.973    3077377.965    6343375.317
10 0 59883  35100.00000  0     854680.025    4109749.333    5670578.025
10 0 59883  35280.00000  0    1434866.218    4977266.838    4789957.817
10 0 59883  35460.00000  0    1982979.812    5648649.014    3733576.151
10 0 59883  35640.00000  0    2473517.619    6100391.007    2540048.549
10 0 59883  35820.00000  0    2882558.404    6317665.829    1253144.405
10 0 59883  36000.00000  0    3188902.781    6294867.877     -79847.162
10 0 59883  36180.00000  0    3375117.265    6035764.462   -1409906.379
10 0 59883  36360.00000  0    3428429.988    5553249.061   -2688148.471
10 0 59883  36540.00000  0    3341427.754    4868707.317   -3867682.197
10 0 59883  36720.00000  0    3112514.271    4011028.561   -4905372.999
10 0 59883  36900.00000  0    2746109.326    3015327.603   -5763427.964
10 0 59883  37080.00000  0    2252588.158    1921449.084   -6410746.191
10 0 59883  37260.00000  0    1647969.337     772329.836   -6823991.475
10 0 59883  37440.00000  0     953372.857    -387702.356   -6988365.742
10 0 59883  37620.00000  0     194268.826   -1514630.513   -6898082.688
10 0 59883  37800.00000  0    -600456.336   -2566394.714   -6556533.069
10 0 59883  37980.00000  0   -1399584.367   -3504434.192   -5976155.648
10 0 59883  38160.00000  0   -2170771.513   -4295087.815   -5178010.092
10 0 59883  38340.00000  0   -2881838.264   -4910807.950   -4191061.104
10 0 59883  38520.00000  0   -3502102.536   -5331148.084   -3051177.648
10 0 59883  38700.00000  0   -4003698.326   -5543476.963   -1799867.731
10 0 59883  38880.00000  0   -4362822.704   -5543386.907    -482784.975
10 0 59883  39060.00000  0   -4560846.905   -5334769.735     851945.925
10 0 59883  39240.00000  0   -4585230.636   -4929549.668    2155517.534
10 0 59883  39420.00000  0   -4430189.062   -4347080.518    3380262.874
10 0 59883  39600.00000  0   -4097077.691   -3613240.760    4481427.408
10 0 59883  39780.00000  0   -3594478.410   -2759276.415    5418816.497
10 0 59883  39960.00000  0   -2937985.055   -1820453.069    6158248.865
10 0 59883  40140.00000  0   -2149706.749    -834589.612    6672773.865
10 0 59883  40320.00000  0   -1257506.817     159471.309    6943620.896
10 0 59883  40500.00000  0    -294009.439    1123388.510    6960847.666
10 0 59883  40680.00000  0     704584.153    2020788.435    6723692.133
10 0 59883  40860.00000  0    1699843.215    2818633.968    6240618.656
10 0 59883  41040.00000  0    2652575.875    3488446.361    5529051.896
10 0 59883  41220.00000  0    3524373.437    4007346.063    4614803.029
10 0 59883  41400.00000  0    4279176.988    4358871.586    3531183.670
10 0 59883  41580.00000  0    4884802.124    4533542.664    2317830.901
10 0 59883  41760.00000  0    5314354.269    4529135.090    1019259.657
10 0 59883  41940.00000  0    5547453.466    4350644.959    -316798.713
10 0 59883  42120.00000  0    5571201.197    4009937.812   -1641209.323
10 0 59883  42300.00000  0    5380830.259    3525098.829   -2905307.150
10 0 59883  42480.00000  0    4980007.387    2919521.261   -4062742.401
10 0 59883  42660.00000  0    4380775.731    2220788.273   -5071216.116
10 0 59883  42840.00000  0    3603143.929    1459404.853   -5894029.518
10 0 59883  43020.00000  0    2674354.256     667452.937   -6501385.576
10 0 59883  43200.00000  0    1627871.236    -122763.202   -6871409.964
10 0 59883  43380.00000  0     502143.824    -880024.615   -6990872.579
10 0 59883  43560.00000  0    -660815.817   -1575413.504   -6855607.003
10 0 59883  43740.00000  0   -1816986.943   -2183394.831   -6470623.825
10 0 59883  43920.00000  0   -2921982.826   -2682737.557   -5849927.208
10 0 59883  44100.00000  0   -3932731.818   -3057248.789   -5016036.225
10 0 59883  44280.00000  0   -4809151.962   -3296302.711   -3999219.232
10 0 59883  44460.00000  0   -5515756.270   -3395141.127   -2836443.620
10 0 59883  44640.00000  0   -6023120.858   -3354930.771   -1570067.450
10 0 59883  44820.00000  0   -6309146.032   -3182571.109    -246308.358
10 0 59883  45000.00000  0   -6360044.391   -2890257.629    1086454.838
10 0 59883  45180.00000  0   -6171001.324   -2494819.469    2379482.050
10 0 59883  45360.00000  0   -5746463.030   -2016862.139    3585493.188
10 0 59883  45540.00000  0   -5100042.822   -1479762.480    4660424.656
10 0 59883  45720.00000  0   -4254048.975    -908567.031    5565047.606
10 0 59883  45900.00000  0   -3238672.411    -328854.714    6266380.388
10 0 59883  46080.00000  0   -2090873.177     234385.725    6738862.107
10 0 59883  46260.00000  0    -853008.842     757813.004    6965246.378
10 0 59883  46440.00000  0     428732.506    1220683.325    6937199.819
10 0 59883  46620.00000  0    1706042.842    1605665.426    6655599.755
10 0 59883  46800.00000  0    2930300.174    1899492.638    6130524.710
10 0 59883  46980.00000  0    4054416.022    2093428.704    5380935.491
10 0 59883  47160.00000  0    5034665.652    2183532.694    4434044.148
10 0 59883  47340.00000  0    5832433.616    2170714.691    3324380.021
10 0 59883  47520.00000  0    6415805.441    2060572.909    2092558.177
10 0 59883  47700.00000  0    6760915.786    1863016.331     783791.432
10 0 59883  47880.00000  0    6852987.579    1591687.864    -553803.870
10 0 59883  48060.00000  0    6686993.479    1263217.098   -1871037.260
10 0 59883  48240.00000  0    6267903.350     896338.049   -3119518.385
10 0 59883  48420.00000  0    5610507.184     510921.927   -4253491.904
10 0 59883  48600.00000  0    4738821.342     126981.427   -5231546.591
10 0 59883  48780.00000  0    3685122.902    -236301.890   -6018120.462
10 0 59883  48960.00000  0    2488676.171    -561477.162   -6584754.679
10 0 59883  49140.00000  0    1194210.988    -833612.915   -6911063.764
10 0 59883  49320.00000  0    -149774.821   -1040944.248   -6985403.457
10 0 59883  49500.00000  0   -1492829.788   -1175355.212   -6805235.429
10 0 59883  49680.00000  0   -2784420.176   -1232683.651   -6377188.904
10 0 59883  49860.00000  0   -3975802.873   -1212840.916   -5716820.991
10 0 59883  50040.00000  0   -5021846.180   -1119745.621   -4848088.478
10 0 59883  50220.00000  0   -5882748.964    -961073.773   -3802530.037
10 0 59883  50400.00000  0   -6525589.230    -747833.626   -2618170.548
10 0 59883  50580.00000  0   -6925637.327    -493780.138   -1338170.634
10 0 59883  50760.00000  0   -7067367.071    -214694.345      -9261.175
10 0 59883  50940.00000  0   -6945104.072      72442.259    1319983.294
10 0 59883  51120.00000  0   -6563272.154     350333.029    2600951.690
10 0 59883  51300.00000  0   -5936227.292     602264.186    3786810.298
10 0 59883  51480.00000  0   -5087681.807     812970.842    4834241.273
10 0 59883  51660.00000  0   -4049755.441     969425.018    5705027.076
10 0 59883  51840.00000  0   -2861710.828    1061507.799    6367423.720
10 0 59883  52020.00000  0   -1568433.046    1082536.016    6797286.726
10 0 59883  52200.00000  0    -218713.137    1029623.392    6978915.149
10 0 59883  52380.00000  0    1136590.413     903860.929    6905594.427
10 0 59883  52560.00000  0    2446451.673     710310.597    6579839.796
10 0 59883  52740.00000  0    3661586.645     457812.045    6013334.438
10 0 59883  52920.00000  0    4736316.041     158605.666    5226556.375
10 0 59883  53100.00000  0    5630315.845    -172217.779    4248092.312
10 0 59883  53280.00000  0    6310191.450    -517422.009    3113647.997
10 0 59883  53460.00000  0    6750806.809    -858453.863    1864769.826
10 0 59883  53640.00000  0    6936292.221   -1176360.750     547314.241
10 0 59883  53820.00000  0    6860678.240   -1452751.349    -790273.115
10 0 59883  54000.00000  0    6528112.650   -1670748.119   -2098803.016
10 0 59883  54180.00000  0    5952640.065   -1815877.517   -3330219.716
10 0 59883  54360.00000  0    5157561.825   -1876850.214   -4439418.100
10 0 59883  54540.00000  0    4174420.765   -1846189.890   -5385918.668
10 0 59883  54720.00000  0    3041670.078   -1720683.116   -6135334.498
10 0 59883  54900.00000  0    1803100.480   -1501631.625   -6660575.576
10 0 59883  55080.00000  0     506107.339   -1194897.906   -6942767.148
10 0 59883  55260.00000  0    -800135.686    -810749.244   -6971864.419
10 0 59883  55440.00000  0   -2066527.002    -363508.069   -6746962.234
10 0 59883  55620.00000  0   -3245856.807     128981.197   -6276301.859
10 0 59883  55800.00000  0   -4294539.412     646051.100   -5576979.311
10 0 59883  55980.00000  0   -5174215.503    1165054.055   -4674365.083
10 0 59883  56160.00000  0   -5853174.042    1662323.337   -3601237.011
10 0 59883  56340.00000  0   -6307537.303    2114219.632   -2396636.639
10 0 59883  56520.00000  0   -6522153.108    2498213.477   -1104477.240
10 0 59883  56700.00000  0   -6491149.922    2793955.622     228053.857
10 0 59883  56880.00000  0   -6218116.682    2984279.367    1552241.595
10 0 59883  57060.00000  0   -5715889.453    3056082.756    2819659.996
10 0 59883  57240.00000  0   -5005957.215    3001043.041    3983977.208
10 0 59883  57420.00000  0   -4117520.393    2816124.958    5002670.676
10 0 59883  57600.00000  0   -3086254.137    2503860.036    5838577.562
10 0 59883  57780.00000  0   -1952843.475    2072389.992    6461229.627
10 0 59883  57960.00000  0    -761352.614    1535270.652    6847929.808
10 0 59883  58140.00000  0     442495.281     911045.804    6984538.892
10 0 59883  58320.00000  0    1613061.135     222609.305    6865967.545
10 0 59883  58500.00000  0    2706506.221    -503624.490    6496367.573
10 0 59883  58680.00000  0    3682430.158   -1238721.073    5889017.176
10 0 59883  58860.00000  0    4505381.746   -1952367.209    5065892.618
10 0 59883  59040.00000  0    5146185.779   -2614115.958    4056926.401
10 0 59883  59220.00000  0    5583037.258   -3194688.710    2898965.269
99
